[{"OBJECT_NAME":"ORBCOMM FM04","OBJECT_ID":"1998-007C","EPOCH":"2026-03-09T14:44:15.821664","MEAN_MOTION":14.35529153,"ECCENTRICITY":0.0038795,"INCLINATION":107.9614,"RA_OF_ASC_NODE":324.5497,"ARG_OF_PERICENTER":142.9338,"MEAN_ANOMALY":217.4493,"EPHEMERIS_TYPE":0,"CLASSIFICATION_TYPE":"U","NORAD_CAT_ID":25159,"ELEMENT_SET_NO":999,"REV_AT_EPOCH":46230,"BSTAR":0.0004125,"MEAN_MOTION_DOT":1.067e-5,"MEAN_MOTION_DDOT":0},{"OBJECT_NAME":"FENGYUN 1C DEB","OBJECT_ID":"1999-025RG","EPOCH":"2026-03-09T22:43:42.509856","MEAN_MOTION":14.25116999,"ECCENTRICITY":0.00621475,"INCLINATION":99.2559,"RA_OF_ASC_NODE":60.0814,"ARG_OF_PERICENTER":230.6558,"MEAN_ANOMALY":184.5225,"EPHEMERIS_TYPE":0,"CLASSIFICATION_TYPE":"U","NORAD_CAT_ID":30103,"ELEMENT_SET_NO":999,"REV_AT_EPOCH":99161,"BSTAR":0.00050453254,"MEAN_MOTION_DOT":1.158e-5,"MEAN_MOTION_DDOT":0}]
